QIANFAN-65              
1 62795U 25016L   25364.87622850  .00000119  00000+0  16604-3 0  9991
2 62795  88.9765 101.1859 0012153 291.0874  68.8977 13.50978139 49691
QIANFAN-66              
1 62796U 25016M   25364.83099185  .00000211  00000+0  30828-3 0  9994
2 62796  88.9785 101.1644 0013257 286.1558  73.8134 13.50983238 49738
QIANFAN-67              
1 62797U 25016N   25364.83518662  .00000208  00000+0  30336-3 0  9991
2 62797  88.9775 101.1877 0013228 294.0015  65.9751 13.50987405 49704
QIANFAN-68              
1 62798U 25016P   25364.90091389  .00000211  00000+0  30867-3 0  9995
2 62798  88.9779 101.2268 0013274 291.7484  68.2254 13.50989810 49693
QIANFAN-69              
1 62799U 25016Q   25364.84330469  .00000196  00000+0  28454-3 0  9995
2 62799  88.9758 101.0982 0014028 293.2227  66.7447 13.50992481 49721
QIANFAN-70              
1 62800U 25016R   25364.85985486  .00000210  00000+0  30728-3 0  9998
2 62800  88.9779 101.2388 0013644 282.2546  77.7077 13.50983455 49681
QIANFAN-71              
1 62801U 25016S   25364.85566036  .00000207  00000+0  30238-3 0  9997
2 62801  88.9772 101.2176 0013960 297.1608  62.8119 13.50982942 49687
QIANFAN-72              
1 62802U 25016T   25364.87211141  .00000195  00000+0  28404-3 0  9992
2 62802  88.9763 101.2275 0017264 304.8929  55.0599 13.50982751 49674
